QIANFAN-148             
1 69107U 26108D   26162.52799516 -.01929339  00000+0 -12011+1 0  9993
2 69107  89.0103  22.8444 0017085 119.3750 240.9142 14.08783300  3545
QIANFAN-149             
1 69108U 26108E   26162.52581633 -.02105413  00000+0 -12961+1 0  9997
2 69108  89.0111  22.8448 0012611 112.4157 247.8364 14.09795351  3546
QIANFAN-150             
1 69109U 26108F   26162.51404573 -.02093441  00000+0 -12498+1 0  9996
2 69109  89.0110  22.8440 0013434 120.5624 239.6889 14.11447905  3544
QIANFAN-151             
1 69110U 26108G   26162.50836788 -.02044087  00000+0 -12517+1 0  9998
2 69110  89.0110  22.8421 0015248 110.9784 249.3033 14.09939876  3549
QIANFAN-152             
1 69111U 26108H   26162.49990259 -.01979326  00000+0 -11704+1 0  9990
2 69111  89.0101  22.8417 0015799 115.8537 244.4279 14.11720810  3543
QIANFAN-153             
1 69112U 26108J   26162.49456583 -.01986416  00000+0 -11783+1 0  9993
2 69112  89.0104  22.8397 0016658 118.0456 242.2417 14.11554242  3548
QIANFAN-154             
1 69113U 26108K   26162.41671075 -.02066713  00000+0 -12182+1 0  9995
2 69113  89.0114  22.8466 0016799 116.5076 243.7835 14.12061381  3531
QIANFAN-155             
1 69114U 26108L   26162.49185019 -.02048462  00000+0 -12234+1 0  9991
2 69114  89.0114  22.8400 0014790 113.9490 246.3246 14.11322154  3543
QIANFAN-156             
1 69115U 26108M   26162.47983655 -.02098012  00000+0 -12093+1 0  9991
2 69115  89.0111  22.8391 0016598 133.2892 226.9682 14.13346721  3545
QIANFAN-157             
1 69116U 26108N   26162.52102701 -.02088993  00000+0 -11731+1 0  9998
2 69116  89.0106  22.8262 0018458 148.8639 211.3646 14.14729276  3555
QIANFAN-158             
1 69117U 26108P   26162.54073957 -.02031927  00000+0 -11706+1 0  9998
2 69117  89.0108  22.8293 0015918 130.7483 229.5088 14.13245785  3555
QIANFAN-159             
1 69118U 26108Q   26162.53469014 -.02002294  00000+0 -11308+1 0  9994
2 69118  89.0104  22.8281 0017013 136.3887 223.8648 14.14258982  3550
QIANFAN-160             
1 69119U 26108R   26162.53139478 -.02107077  00000+0 -11926+1 0  9994
2 69119  89.0111  22.8273 0017995 143.5295 216.7121 14.14343669  3556
QIANFAN-161             
1 69120U 26108S   26162.59628497  .00000086  00000+0  33883-4 0  9994
2 69120  89.0118  22.8189 0015675 131.7198 228.5336 14.19442449  3566
QIANFAN-162             
1 69121U 26108T   26162.52226654 -.02104863  00000+0 -11587+1 0  9992
2 69121  89.0109  22.8263 0019553 152.1527 208.0712 14.15828757  3558
SMILE                   
1 69123U 26109A   26144.65318427 -.00001976  00000+0 -42379-3 0  9994
2 69123  70.0007 229.2745 0009123 259.5159 100.4951 14.57062785   802
STARLINK-37726          
1 69124U 26110A   26162.67826288  .00017398  00000+0  32063-3 0  9990
2 69124  97.2849 358.8459 0001481  87.3952 272.7468 15.49207806  4746
STARLINK-37722          
1 69125U 26110B   26162.66668980  .00009185  00000+0  17015-3 0  9998
2 69125  97.2842 358.9964 0001558  63.5474 251.0331 15.49222758  4812
STARLINK-37715          
1 69126U 26110C   26162.66668980 -.02514218  00000+0 -57498-1 0  9998
2 69126  97.2839 359.0895 0001888  72.0579  93.6282 15.46387082  4769
STARLINK-37706          
1 69127U 26110D   26162.66668980 -.02513806  00000+0 -56795-1 0  9990
2 69127  97.2843 359.0952 0002030  70.0077 107.7121 15.46735155  4767
STARLINK-37723          
1 69128U 26110E   26162.66668980 -.02524489  00000+0 -56485-1 0  9996
2 69128  97.2837 359.1008 0001876  75.3418 115.0373 15.47032299  4769
STARLINK-37720          
1 69129U 26110F   26162.73407252  .00028867  00000+0  53003-3 0  9998
2 69129  97.2852 358.9225 0001443  84.9225 275.2191 15.49213908  4753
STARLINK-37533          
1 69130U 26110G   26162.66668980 -.02499291  00000+0 -53849-1 0  9992
2 69130  97.2843 359.1155 0002023  82.2486 143.5723 15.48075658  4761
STARLINK-37530          
1 69131U 26110H   26162.66668980 -.02515186  00000+0 -53595-1 0  9993
2 69131  97.2840 359.1218 0002140  84.6384 153.1686 15.48413067  4767
STARLINK-37660          
1 69132U 26110J   26162.66668980 -.00024394  00000+0 -44765-3 0  9999
2 69132  97.2842 359.0309 0000687 106.4185 292.3827 15.49228219  4763
STARLINK-37633          
1 69133U 26110K   26162.66668980 -.00021911  00000+0 -40197-3 0  9997
2 69133  97.2840 359.0443 0000987 122.5525 307.2401 15.49214322  4776
STARLINK-37361          
1 69134U 26110L   26162.66668980 -.02597411  00000+0 -53474-1 0  9993
2 69134  97.2839 359.1328 0002004 109.0064 163.2551 15.49509752  4778
STARLINK-37372          
1 69135U 26110M   26162.66668980 -.00002176  00000+0 -38364-4 0  9995
2 69135  97.2840 359.0542 0000977  90.6817 358.4343 15.49187422  4779
STARLINK-37531          
1 69136U 26110N   26162.66668980 -.01730673  00000+0 -34138-1 0  9999
2 69136  97.2839 359.1184 0002133  66.0891 177.6485 15.50425311  4778
