OBJECT_NAME,OBJECT_ID,EPOCH,MEAN_MOTION,ECCENTRICITY,INCLINATION,RA_OF_ASC_NODE,ARG_OF_PERICENTER,MEAN_ANOMALY,EPHEMERIS_TYPE,CLASSIFICATION_TYPE,NORAD_CAT_ID,ELEMENT_SET_NO,REV_AT_EPOCH,BSTAR,MEAN_MOTION_DOT,MEAN_MOTION_DDOT
QIANFAN-148,2026-108D,2026-06-11T12:40:18.781824,14.08783300,.0017085,89.0103,22.8444,119.3750,240.9142,0,U,69107,999,354,-.12011E+1,-.1929339E-1,0
QIANFAN-149,2026-108E,2026-06-11T12:37:10.530912,14.09795351,.0012611,89.0111,22.8448,112.4157,247.8364,0,U,69108,999,354,-.12961E+1,-.2105413E-1,0
QIANFAN-150,2026-108F,2026-06-11T12:20:13.551072,14.11447905,.0013434,89.0110,22.8440,120.5624,239.6889,0,U,69109,999,354,-.12498E+1,-.2093441E-1,0
QIANFAN-151,2026-108G,2026-06-11T12:12:02.984832,14.09939876,.0015248,89.0110,22.8421,110.9784,249.3033,0,U,69110,999,354,-.12517E+1,-.2044087E-1,0
QIANFAN-152,2026-108H,2026-06-11T11:59:51.583776,14.11720810,.0015799,89.0101,22.8417,115.8537,244.4279,0,U,69111,999,354,-.11704E+1,-.1979326E-1,0
QIANFAN-153,2026-108J,2026-06-11T11:52:10.487712,14.11554242,.0016658,89.0104,22.8397,118.0456,242.2417,0,U,69112,999,354,-.11783E+1,-.1986416E-1,0
QIANFAN-154,2026-108K,2026-06-11T10:00:03.808800,14.12061381,.0016799,89.0114,22.8466,116.5076,243.7835,0,U,69113,999,353,-.12182E+1,-.2066713E-1,0
QIANFAN-155,2026-108L,2026-06-11T11:48:15.856416,14.11322154,.001479,89.0114,22.8400,113.9490,246.3246,0,U,69114,999,354,-.12234E+1,-.2048462E-1,0
QIANFAN-156,2026-108M,2026-06-11T11:30:57.877920,14.13346721,.0016598,89.0111,22.8391,133.2892,226.9682,0,U,69115,999,354,-.12093E+1,-.2098012E-1,0
QIANFAN-157,2026-108N,2026-06-11T12:30:16.733664,14.14729276,.0018458,89.0106,22.8262,148.8639,211.3646,0,U,69116,999,355,-.11731E+1,-.2088993E-1,0
QIANFAN-158,2026-108P,2026-06-11T12:58:39.898848,14.13245785,.0015918,89.0108,22.8293,130.7483,229.5088,0,U,69117,999,355,-.11706E+1,-.2031927E-1,0
QIANFAN-159,2026-108Q,2026-06-11T12:49:57.228096,14.14258982,.0017013,89.0104,22.8281,136.3887,223.8648,0,U,69118,999,355,-.11308E+1,-.2002294E-1,0
QIANFAN-160,2026-108R,2026-06-11T12:45:12.508992,14.14343669,.0017995,89.0111,22.8273,143.5295,216.7121,0,U,69119,999,355,-.11926E+1,-.2107077E-1,0
QIANFAN-161,2026-108S,2026-06-11T14:18:39.021408,14.19442449,.0015675,89.0118,22.8189,131.7198,228.5336,0,U,69120,999,356,.33883E-4,.86E-6,0
QIANFAN-162,2026-108T,2026-06-11T12:32:03.829056,14.15828757,.0019553,89.0109,22.8263,152.1527,208.0712,0,U,69121,999,355,-.11587E+1,-.2104863E-1,0
SMILE,2026-109A,2026-05-24T15:40:35.120928,14.57062785,.00091232,70.0007,229.2745,259.5159,100.4951,0,U,69123,999,80,-.42378883E-3,-.1976E-4,0
STARLINK-37726,2026-110A,2026-06-11T16:16:41.912832,15.49207806,.0001481,97.2849,358.8459,87.3952,272.7468,0,U,69124,999,474,.32063E-3,.17398E-3,0
STARLINK-37722,2026-110B,2026-06-11T16:00:01.998720,15.49222758,.0001558,97.2842,358.9964,63.5474,251.0331,0,U,69125,999,481,.17015E-3,.9185E-4,0
STARLINK-37715,2026-110C,2026-06-11T16:00:01.998720,15.46387082,.0001888,97.2839,359.0895,72.0579,93.6282,0,U,69126,999,476,-.57498E-1,-.2514218E-1,0
STARLINK-37706,2026-110D,2026-06-11T16:00:01.998720,15.46735155,.000203,97.2843,359.0952,70.0077,107.7121,0,U,69127,999,476,-.56795E-1,-.2513806E-1,0
STARLINK-37723,2026-110E,2026-06-11T16:00:01.998720,15.47032299,.0001876,97.2837,359.1008,75.3418,115.0373,0,U,69128,999,476,-.56485E-1,-.2524489E-1,0
STARLINK-37720,2026-110F,2026-06-11T17:37:03.865728,15.49213908,.0001443,97.2852,358.9225,84.9225,275.2191,0,U,69129,999,475,.53003E-3,.28867E-3,0
STARLINK-37533,2026-110G,2026-06-11T16:00:01.998720,15.48075658,.0002023,97.2843,359.1155,82.2486,143.5723,0,U,69130,999,476,-.53849E-1,-.2499291E-1,0
STARLINK-37530,2026-110H,2026-06-11T16:00:01.998720,15.48413067,.000214,97.2840,359.1218,84.6384,153.1686,0,U,69131,999,476,-.53595E-1,-.2515186E-1,0
STARLINK-37660,2026-110J,2026-06-11T16:00:01.998720,15.49228219,.0000687,97.2842,359.0309,106.4185,292.3827,0,U,69132,999,476,-.44765E-3,-.24394E-3,0
STARLINK-37633,2026-110K,2026-06-11T16:00:01.998720,15.49214322,.0000987,97.2840,359.0443,122.5525,307.2401,0,U,69133,999,477,-.40197E-3,-.21911E-3,0
STARLINK-37361,2026-110L,2026-06-11T16:00:01.998720,15.49509752,.0002004,97.2839,359.1328,109.0064,163.2551,0,U,69134,999,477,-.53474E-1,-.2597411E-1,0
STARLINK-37372,2026-110M,2026-06-11T16:00:01.998720,15.49187422,.0000977,97.2840,359.0542,90.6817,358.4343,0,U,69135,999,477,-.38364E-4,-.2176E-4,0
STARLINK-37531,2026-110N,2026-06-11T16:00:01.998720,15.50425311,.0002133,97.2839,359.1184,66.0891,177.6485,0,U,69136,999,477,-.34138E-1,-.1730673E-1,0
